CALSPHERE 1             
1 00900U 64063C   16043.51204169  .00000459  00000-0  48897-3 0  9997
2 00900  90.1429   4.1440 0027287 142.4047 217.9031 13.72644629552691
CALSPHERE 2             
1 00902U 64063E   16041.95255841  .00000043  00000-0  50511-4 0  9994
2 00902  90.1471   6.4376 0019541  42.0651  26.2947 13.52627664345340
LCS 1                   
1 01361U 65034C   16041.73333056  .00000007  00000-0 -17430-3 0  9997
2 01361  32.1391 150.6712 0006607  97.9096 262.2152  9.89289224835596
TEMPSAT 1               
1 01512U 65065E   16041.60331633  .00000036  00000-0  52987-4 0  9992
2 01512  89.8016 251.2093 0071532  61.8185 351.9299 13.33388625456355
CALSPHERE 4(A)          
1 01520U 65065H   16043.51472549  .00000093  00000-0  16488-3 0  9993
2 01520  90.1030 118.3006 0067264 317.0765 176.3234 13.35688212458750
OPS 5712 (P/L 160)      
1 02826U 67053A   16043.49768411  .00001771  00000-0  50235-3 0  9997
2 02826  69.9299 307.6654 0006074 325.2299  34.8436 14.47055173517675
OPS 5712 (P/L 153)      
1 02874U 67053H   16043.20677961  .00000037  00000-0  65397-4 0  9998
2 02874  69.9736 287.8757 0005009  42.8003 100.0706 13.96253133479839
SURCAL 150B             
1 02909U 67053J   16043.16141918  .00002967  00000-0  64575-3 0  9990
2 02909  69.9500  42.6445 0001969 211.1038 148.9984 14.58942131525606
RIGIDSPHERE 2 (LCS 4)   
1 05398U 71067E   16042.81123041  .00000410  00000-0  13848-3 0  9991
2 05398  87.6237 301.7319 0065769 104.8320 256.0175 14.33373949332397
